     3.02           N: GNSS NAV DATA    C: BEIDOU           RINEX VERSION / TYPE
Spider v7.5.1.8670  SMO                 20210610 040351 UTC PGM / RUN BY / DATE
BDSA   9.3132D-09  4.4703D-08 -3.5763D-07  5.3644D-07       IONOSPHERIC CORR
BDSB   1.1878D+05  1.6384D+05 -3.2768D+05  1.9661D+05       IONOSPHERIC CORR
BDUT -1.8626451492D-09 9.769962617D-15 359585  805          TIME SYSTEM CORR
     4     4   573     6                                    LEAP SECONDS
                                                            END OF HEADER
C09 2021 06 10 03 00 00 4.597216611728D-04-2.861355596906D-11 0.000000000000D+00
     1.000000000000D+00-6.343750000000D+01 1.928651682803D-09-1.623162965767D-01
    -2.274289727211D-06 8.289490593597D-03 2.578832209110D-06 6.493488361359D+03
     3.564000000000D+05 5.261972546577D-08-1.265398089847D+00-8.707866072655D-08
     9.495427915829D-01 1.480781250000D+02-2.334145015858D+00-2.032227497395D-09
    -6.018107678862D-10                    8.050000000000D+02                   
     2.000000000000D+00 0.000000000000D+00 7.100000143367D-09 3.400000059273D-09
     3.564000000000D+05 0.000000000000D+00                                      
C11 2021 06 10 03 00 00 3.908268408850D-04 2.252420472360D-11 0.000000000000D+00
     1.000000000000D+00-9.145312500000D+01 3.349068133929D-09 3.074495536988D+00
    -4.457775503397D-06 1.806818414479D-03 1.010484993458D-07 5.282603660583D+03
     3.564000000000D+05-2.374872565269D-08 1.941728476305D+00 7.450580596924D-09
     9.902855062805D-01 3.745625000000D+02-2.016138487781D+00-6.867428847812D-09
    -1.367914115313D-10                    8.050000000000D+02                   
     2.000000000000D+00 0.000000000000D+00 4.199999903420D-09 1.199999988266D-09
     3.564000000000D+05 0.000000000000D+00                                      
C23 2021 06 10 03 00 00-9.308983571827D-04-1.151079231931D-11 0.000000000000D+00
     1.000000000000D+00 6.071875000000D+01 3.670152848301D-09-2.391726178047D+00
     2.945773303509D-06 2.474448410794D-04 1.157633960247D-05 5.282627359390D+03
     3.564000000000D+05-2.561137080193D-08-1.703886668348D-01-3.445893526077D-08
     9.499257981653D-01 1.219062500000D+02-1.896795687737D+00-6.528486196089D-09
    -5.796669810820D-10                    8.050000000000D+02                   
     2.000000000000D+00 0.000000000000D+00 2.500000029215D-08 2.500000029215D-08
     3.564000000000D+05 1.000000000000D+00                                      
C24 2021 06 10 03 00 00-8.864077972248D-04-1.669775429036D-11 0.000000000000D+00
     1.000000000000D+00 7.898437500000D+01 3.733727105271D-09-2.958544164337D+00
     3.791879862547D-06 3.870256477967D-04 1.073395833373D-05 5.282628030777D+03
     3.564000000000D+05-4.656612873077D-10-1.705707591739D-01-4.470348358154D-08
     9.499169840838D-01 1.355781250000D+02 2.641025567716D-01-6.584917056074D-09
    -5.785955048410D-10                    8.050000000000D+02                   
     2.000000000000D+00 0.000000000000D+00 7.000000135093D-09 7.000000135093D-09
     3.564000000000D+05 1.000000000000D+00                                      
C08 2021 06 10 03 00 00-8.934144861996D-04-1.972644270154D-12 0.000000000000D+00
     1.000000000000D+00-9.001250000000D+02 4.093027583529D-10 2.780600991467D+00
    -2.841278910637D-05 5.157212493941D-03 2.006394788623D-05 6.493819215775D+03
     3.564000000000D+05-4.796311259270D-07 2.851810985214D+00-6.807968020439D-07
     1.043856394546D+00-3.495156250000D+02-2.731523646261D+00-1.806146676664D-09
     1.014327996596D-10                    8.050000000000D+02                   
     2.000000000000D+00 0.000000000000D+00 1.130000004679D-08-9.999999717181D-10
     3.564000000000D+05 0.000000000000D+00                                      
C12 2021 06 10 03 00 00 8.500268450007D-04-1.375966007799D-11 0.000000000000D+00
     1.000000000000D+00-9.095312500000D+01 3.378354929140D-09-2.440414992691D+00
    -4.532746970654D-06 8.914362406358D-04 3.655441105366D-07 5.282607147217D+03
     3.564000000000D+05-1.396983861923D-08 1.930358833525D+00-1.583248376846D-08
     9.889248959142D-01 3.661562500000D+02-2.009383723949D+00-6.921002437821D-09
    -1.453631937043D-10                    8.050000000000D+02                   
     2.000000000000D+00 0.000000000000D+00 3.100000034451D-09-2.999999970665D-10
     3.564000000000D+05 0.000000000000D+00                                      
C28 2021 06 10 03 00 00-6.417650729418D-05 4.482636484227D-12 0.000000000000D+00
     1.000000000000D+00-7.745312500000D+01 3.755513677817D-09-2.737849050951D+00
    -3.666616976261D-06 1.122553367168D-04-4.540197551250D-07 5.282620918274D+03
     3.564000000000D+05 3.632158041000D-08 1.933233577270D+00 3.352761268616D-08
     9.662153778116D-01 3.718281250000D+02 2.616727595608D+00-7.134582702406D-09
    -8.071764784345D-11                    8.050000000000D+02                   
     2.000000000000D+00 0.000000000000D+00-4.399999919968D-09-4.399999919968D-09
     3.564000000000D+05 1.000000000000D+00                                      
C25 2021 06 10 03 00 00-9.033983806148D-04 5.927702773079D-12 0.000000000000D+00
     1.000000000000D+00 6.534375000000D+01 3.707654405716D-09 2.516417397811D+00
     2.956483513117D-06 3.562186611816D-04 1.167180016637D-05 5.282627553940D+03
     3.564000000000D+05-6.519258022308D-09-1.958687820810D-01-2.793967723846D-08
     9.511790991017D-01 1.201875000000D+02 2.467786662477D-01-6.525271878388D-09
    -6.350264758481D-10                    8.050000000000D+02                   
     2.000000000000D+00 0.000000000000D+00 9.000000189552D-10 9.000000189552D-10
     3.564000000000D+05 1.000000000000D+00                                      
C07 2021 06 10 03 00 00 9.001616854221D-05-4.040856538268D-11 0.000000000000D+00
     1.000000000000D+00 9.622500000000D+02 1.209693234472D-09-1.515752332689D+00
     3.093807026744D-05 8.476594462991D-03 4.619825631380D-06 6.493788856506D+03
     3.564000000000D+05 6.752088665962D-08 6.881570945852D-01 1.271255314350D-07
     8.883874103873D-01 8.756250000000D+01-2.540383353346D+00-2.272237509260D-09
     1.957224382565D-10                    8.050000000000D+02                   
     2.000000000000D+00 0.000000000000D+00 1.490000034465D-08 7.000000024071D-10
     3.564000000000D+05 0.000000000000D+00                                      
C13 2021 06 10 03 00 00 2.940436825156D-04 1.452882258945D-11 0.000000000000D+00
     1.000000000000D+00-8.874531250000D+02 2.867976689469D-10 2.306893164914D+00
    -2.813059836626D-05 3.717174055055D-03 1.610442996025D-05 6.493509435654D+03
     3.564000000000D+05-1.066364347935D-07 2.829819900329D+00 1.695007085800D-07
     1.005163036435D+00-2.402656250000D+02-2.592676678179D+00-1.646497160834D-09
    -2.750114545813D-11                    8.050000000000D+02                   
     2.000000000000D+00 0.000000000000D+00-9.199999873033D-09 2.399999976532D-09
     3.564000000000D+05 0.000000000000D+00                                      
C02 2021 06 10 03 00 00 6.060702726245D-04-3.203926013384D-11 0.000000000000D+00
     1.000000000000D+00 7.223437500000D+02 6.924574247336D-09 1.300349142590D-01
     2.360856160522D-05 7.682897849008D-04 1.003593206406D-05 6.493503749847D+03
     3.564000000000D+05 1.820735633373D-07-2.474291308279D+00-7.916241884232D-09
     1.154671496931D-01-3.111093750000D+02-1.618848837906D+00-5.883102005555D-09
     7.478883068401D-10                    8.050000000000D+02                   
     2.000000000000D+00 0.000000000000D+00 1.400000004814D-09-1.420000028673D-08
     3.564004000000D+05 0.000000000000D+00                                      
C05 2021 06 10 03 00 00-9.693950414658D-05 1.779376646027D-11 0.000000000000D+00
     1.000000000000D+00 6.919062500000D+02 6.753138492854D-09-6.701984994976D-01
     2.260413020849D-05 7.979494985193D-04 1.180917024612D-05 6.493454708099D+03
     3.564000000000D+05 2.118758857250D-07-2.502350053633D+00-1.238659024239D-07
     1.044030461316D-01-3.643750000000D+02-1.231388787691D+00-5.708094885648D-09
     6.911002325971D-10                    8.050000000000D+02                   
     2.000000000000D+00 0.000000000000D+00 0.000000000000D+00-9.499999897855D-09
     3.564004000000D+05 0.000000000000D+00                                      
C03 2021 06 10 03 00 00-2.067572204396D-04 4.486278015747D-11 0.000000000000D+00
     1.000000000000D+00 7.594375000000D+02 6.844928179817D-09-5.254265639768D-01
     2.467725425959D-05 9.223378729075D-04 1.104688271880D-05 6.493396211624D+03
     3.564000000000D+05 8.102506399155D-08-2.522461423375D+00-1.396983861923D-09
     1.059624392695D-01-3.390625000000D+02-4.500477232998D-01-5.699166027995D-09
     7.807468005439D-10                    8.050000000000D+02                   
     2.000000000000D+00 0.000000000000D+00 2.299999968258D-09-8.099999782019D-09
     3.564004000000D+05 0.000000000000D+00                                      
C01 2021 06 10 03 00 00-3.847666084766D-04 3.650857394177D-11 0.000000000000D+00
     1.000000000000D+00 7.969531250000D+02 9.465394690267D-09-1.772848315003D+00
     2.594944089651D-05 5.692121339962D-04-1.604668796062D-06 6.493424430847D+03
     3.564000000000D+05 1.210719347000D-08-2.328346141717D+00-5.681067705154D-08
     8.350277294567D-02 5.303125000000D+01 1.198007274886D+00-8.377491589329D-09
     6.803854701865D-10                    8.050000000000D+02                   
     2.000000000000D+00 0.000000000000D+00-5.199999986161D-09-1.009999994750D-08
     3.564004000000D+05 0.000000000000D+00                                      
